[{"OBJECT_NAME":"STARLINK-1856","OBJECT_ID":"2020-088X","EPOCH":"2026-03-10T00:00:02.999808","MEAN_MOTION":15.49188695,"ECCENTRICITY":0.0006619,"INCLINATION":53.0514,"RA_OF_ASC_NODE":271.7425,"ARG_OF_PERICENTER":153.2218,"MEAN_ANOMALY":212.208,"EPHEMERIS_TYPE":0,"CLASSIFICATION_TYPE":"U","NORAD_CAT_ID":47143,"ELEMENT_SET_NO":999,"REV_AT_EPOCH":590,"BSTAR":0.0029309484,"MEAN_MOTION_DOT":0.00165467,"MEAN_MOTION_DDOT":0},{"OBJECT_NAME":"STARLINK-36329","OBJECT_ID":"2026-026U","EPOCH":"2026-03-09T22:00:01.999584","MEAN_MOTION":15.50051843,"ECCENTRICITY":0.00015691,"INCLINATION":97.2841,"RA_OF_ASC_NODE":123.562,"ARG_OF_PERICENTER":77.7397,"MEAN_ANOMALY":270.0665,"EPHEMERIS_TYPE":0,"CLASSIFICATION_TYPE":"U","NORAD_CAT_ID":67739,"ELEMENT_SET_NO":999,"REV_AT_EPOCH":535,"BSTAR":-0.037726125,"MEAN_MOTION_DOT":-0.0186882,"MEAN_MOTION_DDOT":0}]
